{
  "type": "FeatureCollection",
  "features": [
    {
      "type": "Feature",
      "properties": {
        "norad_id": 66909,
        "name": "SILVERSAT",
        "group": "stations",
        "lat": -25.279734651290095,
        "lon": 124.34183628813162,
        "alt_km": 416.5838194246653,
        "timestamp": "2025-12-11T22:43:46.045044+00:00",
        "meta_object_name": "SILVERSAT",
        "meta_object_id": "1998-067XV",
        "meta_epoch": "2025-12-11T15:08:30.108192",
        "meta_mean_motion": 15.5141128,
        "meta_eccentricity": 0.00045448,
        "meta_inclination": 51.6302,
        "meta_ra_of_asc_node": 147.8859,
        "meta_arg_of_pericenter": 221.0614,
        "meta_mean_anomaly": 139.0034,
        "meta_ephemeris_type": 0,
        "meta_classification_type": "U",
        "meta_norad_cat_id": 66909,
        "meta_element_set_no": 999,
        "meta_rev_at_epoch": 144,
        "meta_bstar": 0.0013283829,
        "meta_mean_motion_dot": 0.00080084,
        "meta_mean_motion_ddot": 0,
        "tle_line1": "1 66909U 98067XV  25345.63090403  .00080084  00000+0  13284-2 0  9993",
        "tle_line2": "2 66909  51.6302 147.8859 0004544 221.0614 139.0034 15.51411280  1441"
      },
      "geometry": {
        "type": "Point",
        "coordinates": [
          124.34183628813162,
          -25.279734651290095
        ]
      }
    },
    {
      "type": "Feature",
      "properties": {
        "norad_id": 66910,
        "name": "1998-067XW",
        "group": "stations",
        "lat": -19.375026171189713,
        "lon": 130.12148610041461,
        "alt_km": 417.25182990960366,
        "timestamp": "2025-12-11T22:43:46.045054+00:00",
        "meta_object_name": "1998-067XW",
        "meta_object_id": "1998-067XW",
        "meta_epoch": "2025-12-11T12:00:59.894208",
        "meta_mean_motion": 15.51542196,
        "meta_eccentricity": 0.00053507,
        "meta_inclination": 51.6307,
        "meta_ra_of_asc_node": 148.5174,
        "meta_arg_of_pericenter": 201.355,
        "meta_mean_anomaly": 158.7217,
        "meta_ephemeris_type": 0,
        "meta_classification_type": "U",
        "meta_norad_cat_id": 66910,
        "meta_element_set_no": 999,
        "meta_rev_at_epoch": 142,
        "meta_bstar": 0.0016174677,
        "meta_mean_motion_dot": 0.00098314,
        "meta_mean_motion_ddot": 0,
        "tle_line1": "1 66910U 98067XW  25345.50069322  .00098314  00000+0  16175-2 0  9994",
        "tle_line2": "2 66910  51.6307 148.5174 0005350 201.3550 158.7217 15.51542196  1422"
      },
      "geometry": {
        "type": "Point",
        "coordinates": [
          130.12148610041461,
          -19.375026171189713
        ]
      }
    },
    {
      "type": "Feature",
      "properties": {
        "norad_id": 66911,
        "name": "1998-067XX",
        "group": "stations",
        "lat": -16.932389505389207,
        "lon": 132.3330980581335,
        "alt_km": 416.51391720185984,
        "timestamp": "2025-12-11T22:43:46.045064+00:00",
        "meta_object_name": "1998-067XX",
        "meta_object_id": "1998-067XX",
        "meta_epoch": "2025-12-11T04:16:32.481408",
        "meta_mean_motion": 15.5166419,
        "meta_eccentricity": 0.00051917,
        "meta_inclination": 51.6299,
        "meta_ra_of_asc_node": 150.1129,
        "meta_arg_of_pericenter": 201.0739,
        "meta_mean_anomaly": 159.0038,
        "meta_ephemeris_type": 0,
        "meta_classification_type": "U",
        "meta_norad_cat_id": 66911,
        "meta_element_set_no": 999,
        "meta_rev_at_epoch": 136,
        "meta_bstar": 0.0016096113,
        "meta_mean_motion_dot": 0.00098261,
        "meta_mean_motion_ddot": 0,
        "tle_line1": "1 66911U 98067XX  25345.17815372  .00098261  00000+0  16096-2 0  9995",
        "tle_line2": "2 66911  51.6299 150.1129 0005191 201.0739 159.0038 15.51664190  1368"
      },
      "geometry": {
        "type": "Point",
        "coordinates": [
          132.3330980581335,
          -16.932389505389207
        ]
      }
    },
    {
      "type": "Feature",
      "properties": {
        "norad_id": 66912,
        "name": "1998-067XY",
        "group": "stations",
        "lat": -30.871007737118102,
        "lon": 118.06159736849914,
        "alt_km": 418.07563198990374,
        "timestamp": "2025-12-11T22:43:46.045074+00:00",
        "meta_object_name": "1998-067XY",
        "meta_object_id": "1998-067XY",
        "meta_epoch": "2025-12-11T12:04:50.239200",
        "meta_mean_motion": 15.50956901,
        "meta_eccentricity": 0.0004664,
        "meta_inclination": 51.6302,
        "meta_ra_of_asc_node": 148.5351,
        "meta_arg_of_pericenter": 216.8191,
        "meta_mean_anomaly": 143.2479,
        "meta_ephemeris_type": 0,
        "meta_classification_type": "U",
        "meta_norad_cat_id": 66912,
        "meta_element_set_no": 999,
        "meta_rev_at_epoch": 141,
        "meta_bstar": 0.0010602588,
        "meta_mean_motion_dot": 0.00062656,
        "meta_mean_motion_ddot": 0,
        "tle_line1": "1 66912U 98067XY  25345.50335925  .00062656  00000+0  10603-2 0  9991",
        "tle_line2": "2 66912  51.6302 148.5351 0004664 216.8191 143.2479 15.50956901  1415"
      },
      "geometry": {
        "type": "Point",
        "coordinates": [
          118.06159736849914,
          -30.871007737118102
        ]
      }
    }
  ]
}